{"type": "FeatureCollection", "features": [ {"type": "Feature", "properties": {"norad_id": 66677, "name": "TRANSPORTER-15M", "group": "last-30-days", "lat": 51.264520771330055, "lon": 60.668880129717415, "alt_km": 503.9860664740654, "timestamp": "2025-12-24T11:32:58.717785+00:00", "meta": {"OBJECT_NAME": "TRANSPORTER-15M", "OBJECT_ID": "2025-276M", "EPOCH": "2025-12-23T22:42:45.903168", "MEAN_MOTION": 15.22843354, "ECCENTRICITY": 0.0025304, "INCLINATION": 97.4375, "RA_OF_ASC_NODE": 69.5111, "ARG_OF_PERICENTER": 251.3667, "MEAN_ANOMALY": 108.4821, "EPHEMERIS_TYPE": 0, "CLASSIFICATION_TYPE": "U", "NORAD_CAT_ID": 66677, "ELEMENT_SET_NO": 999, "REV_AT_EPOCH": 382, "BSTAR": 0.064784, "MEAN_MOTION_DOT": 0.01686367, "MEAN_MOTION_DDOT": 0}, "tle": {"line1": "1 66677U 25276M   25357.94636462  .01686367  00000+0  64784-1 0  9992", "line2": "2 66677  97.4375  69.5111 0025304 251.3667 108.4821 15.22843354  3820"}}, "geometry": {"type": "Point", "coordinates": [60.668880129717415, 51.264520771330055]}}, {"type": "Feature", "properties": {"norad_id": 66678, "name": "TRANSPORTER-15N", "group": "last-30-days", "lat": -27.33336233889589, "lon": 73.89613057489088, "alt_km": 511.9717705431922, "timestamp": "2025-12-24T11:32:58.717798+00:00", "meta": {"OBJECT_NAME": "TRANSPORTER-15N", "OBJECT_ID": "2025-276N", "EPOCH": "2025-12-23T13:30:59.821632", "MEAN_MOTION": 15.1725627, "ECCENTRICITY": 0.00085587, "INCLINATION": 97.4431, "RA_OF_ASC_NODE": 69.1192, "ARG_OF_PERICENTER": 326.8045, "MEAN_ANOMALY": 33.265, "EPHEMERIS_TYPE": 0, "CLASSIFICATION_TYPE": "U", "NORAD_CAT_ID": 66678, "ELEMENT_SET_NO": 999, "REV_AT_EPOCH": 376, "BSTAR": 0.019320773, "MEAN_MOTION_DOT": 0.00406502, "MEAN_MOTION_DDOT": 0}, "tle": {"line1": "1 66678U 25276N   25357.56319238  .00406502  00000+0  19321-1 0  9997", "line2": "2 66678  97.4431  69.1192 0008558 326.8045  33.2650 15.17256270  3766"}}, "geometry": {"type": "Point", "coordinates": [73.89613057489088, -27.33336233889589]}}, {"type": "Feature", "properties": {"norad_id": 66679, "name": "TRANSPORTER-15P", "group": "last-30-days", "lat": -37.69098376461635, "lon": 75.79170623678584, "alt_km": 521.2021604903957, "timestamp": "2025-12-24T11:32:58.717808+00:00", "meta": {"OBJECT_NAME": "TRANSPORTER-15P", "OBJECT_ID": "2025-276P", "EPOCH": "2025-12-23T11:57:58.682304", "MEAN_MOTION": 15.16695549, "ECCENTRICITY": 0.00046551, "INCLINATION": 97.4364, "RA_OF_ASC_NODE": 69.0361, "ARG_OF_PERICENTER": 254.9707, "MEAN_ANOMALY": 105.1011, "EPHEMERIS_TYPE": 0, "CLASSIFICATION_TYPE": "U", "NORAD_CAT_ID": 66679, "ELEMENT_SET_NO": 999, "REV_AT_EPOCH": 375, "BSTAR": 0.00023774263, "MEAN_MOTION_DOT": 4.592e-05, "MEAN_MOTION_DDOT": 0}, "tle": {"line1": "1 66679U 25276P   25357.49859586  .00004592  00000+0  23774-3 0  9997", "line2": "2 66679  97.4364  69.0361 0004655 254.9707 105.1011 15.16695549  3753"}}, "geometry": {"type": "Point", "coordinates": [75.79170623678584, -37.69098376461635]}}, {"type": "Feature", "properties": {"norad_id": 66680, "name": "TRANSPORTER-15Q", "group": "last-30-days", "lat": -29.025451039097906, "lon": 74.17543915077037, "alt_km": 521.4061382366699, "timestamp": "2025-12-24T11:32:58.717820+00:00", "meta": {"OBJECT_NAME": "TRANSPORTER-15Q", "OBJECT_ID": "2025-276Q", "EPOCH": "2025-12-24T03:45:44.844192", "MEAN_MOTION": 15.16856343, "ECCENTRICITY": 0.0004596, "INCLINATION": 97.4404, "RA_OF_ASC_NODE": 69.6985, "ARG_OF_PERICENTER": 239.4951, "MEAN_ANOMALY": 120.5828, "EPHEMERIS_TYPE": 0, "CLASSIFICATION_TYPE": "U", "NORAD_CAT_ID": 66680, "ELEMENT_SET_NO": 999, "REV_AT_EPOCH": 385, "BSTAR": 0.0010491, "MEAN_MOTION_DOT": 0.00020625, "MEAN_MOTION_DDOT": 0}, "tle": {"line1": "1 66680U 25276Q   25358.15676903  .00020625  00000+0  10491-2 0  9999", "line2": "2 66680  97.4404  69.6985 0004596 239.4951 120.5828 15.16856343  3850"}}, "geometry": {"type": "Point", "coordinates": [74.17543915077037, -29.025451039097906]}}, {"type": "Feature", "properties": {"norad_id": 66681, "name": "TRANSPORTER-15R", "group": "last-30-days", "lat": 1.9248965484679008, "lon": 69.75521647962455, "alt_km": 516.4437135049375, "timestamp": "2025-12-24T11:32:58.717831+00:00", "meta": {"OBJECT_NAME": "TRANSPORTER-15R", "OBJECT_ID": "2025-276R", "EPOCH": "2025-12-24T03:37:41.837088", "MEAN_MOTION": 15.17486136, "ECCENTRICITY": 0.0004987, "INCLINATION": 97.4332, "RA_OF_ASC_NODE": 69.6827, "ARG_OF_PERICENTER": 269.701, "MEAN_ANOMALY": 90.3652, "EPHEMERIS_TYPE": 0, "CLASSIFICATION_TYPE": "U", "NORAD_CAT_ID": 66681, "ELEMENT_SET_NO": 999, "REV_AT_EPOCH": 385, "BSTAR": 0.00094173, "MEAN_MOTION_DOT": 0.0001884, "MEAN_MOTION_DDOT": 0}, "tle": {"line1": "1 66681U 25276R   25358.15117867  .00018840  00000+0  94173-3 0  9995", "line2": "2 66681  97.4332  69.6827 0004987 269.7010  90.3652 15.17486136  3851"}}, "geometry": {"type": "Point", "coordinates": [69.75521647962455, 1.9248965484679008]}}, {"type": "Feature", "properties": {"norad_id": 66682, "name": "TRANSPORTER-15S", "group": "last-30-days", "lat": -11.6301060173243, "lon": 71.57968045467283, "alt_km": 518.075661262822, "timestamp": "2025-12-24T11:32:58.717841+00:00", "meta": {"OBJECT_NAME": "TRANSPORTER-15S", "OBJECT_ID": "2025-276S", "EPOCH": "2025-12-23T16:36:30.446784", "MEAN_MOTION": 15.17268093, "ECCENTRICITY": 0.00070245, "INCLINATION": 97.4445, "RA_OF_ASC_NODE": 69.262, "ARG_OF_PERICENTER": 262.2032, "MEAN_ANOMALY": 97.8405, "EPHEMERIS_TYPE": 0, "CLASSIFICATION_TYPE": "U", "NORAD_CAT_ID": 66682, "ELEMENT_SET_NO": 999, "REV_AT_EPOCH": 378, "BSTAR": 0.0041402612, "MEAN_MOTION_DOT": 0.00083292, "MEAN_MOTION_DDOT": 0}, "tle": {"line1": "1 66682U 25276S   25357.69201906  .00083292  00000+0  41403-2 0  9992", "line2": "2 66682  97.4445  69.2620 0007024 262.2032  97.8405 15.17268093  3781"}}, "geometry": {"type": "Point", "coordinates": [71.57968045467283, -11.6301060173243]}}, {"type": "Feature", "properties": {"norad_id": 66683, "name": "TRANSPORTER-15T", "group": "last-30-days", "lat": -17.374613651675023, "lon": 72.37985868686931, "alt_km": 519.9402879851341, "timestamp": "2025-12-24T11:32:58.717851+00:00", "meta": {"OBJECT_NAME": "TRANSPORTER-15T", "OBJECT_ID": "2025-276T", "EPOCH": "2025-12-24T03:42:41.713344", "MEAN_MOTION": 15.17040551, "ECCENTRICITY": 0.0005126, "INCLINATION": 97.4441, "RA_OF_ASC_NODE": 69.7144, "ARG_OF_PERICENTER": 251.3557, "MEAN_ANOMALY": 108.712, "EPHEMERIS_TYPE": 0, "CLASSIFICATION_TYPE": "U", "NORAD_CAT_ID": 66683, "ELEMENT_SET_NO": 999, "REV_AT_EPOCH": 385, "BSTAR": 0.00075812, "MEAN_MOTION_DOT": 0.00014954, "MEAN_MOTION_DDOT": 0}, "tle": {"line1": "1 66683U 25276T   25358.15464946  .00014954  00000+0  75812-3 0  9991", "line2": "2 66683  97.4441  69.7144 0005126 251.3557 108.7120 15.17040551  3857"}}, "geometry": {"type": "Point", "coordinates": [72.37985868686931, -17.374613651675023]}}, {"type": "Feature", "properties": {"norad_id": 66684, "name": "TRANSPORTER-15U", "group": "last-30-days", "lat": 1.3950241698909793, "lon": 69.8682784200732, "alt_km": 518.6869482272959, "timestamp": "2025-12-24T11:32:58.717861+00:00", "meta": {"OBJECT_NAME": "TRANSPORTER-15U", "OBJECT_ID": "2025-276U", "EPOCH": "2025-12-24T03:37:47.665632", "MEAN_MOTION": 15.17348798, "ECCENTRICITY": 0.000461, "INCLINATION": 97.4472, "RA_OF_ASC_NODE": 69.7264, "ARG_OF_PERICENTER": 234.6832, "MEAN_ANOMALY": 125.3971, "EPHEMERIS_TYPE": 0, "CLASSIFICATION_TYPE": "U", "NORAD_CAT_ID": 66684, "ELEMENT_SET_NO": 999, "REV_AT_EPOCH": 385, "BSTAR": 0.00067879, "MEAN_MOTION_DOT": 0.00013498, "MEAN_MOTION_DDOT": 0}, "tle": {"line1": "1 66684U 25276U   25358.15124613  .00013498  00000+0  67879-3 0  9992", "line2": "2 66684  97.4472  69.7264 0004610 234.6832 125.3971 15.17348798  3855"}}, "geometry": {"type": "Point", "coordinates": [69.8682784200732, 1.3950241698909793]}}, {"type": "Feature", "properties": {"norad_id": 66685, "name": "TRANSPORTER-15V", "group": "last-30-days", "lat": 9.317099518728297, "lon": 68.80758192100494, "alt_km": 516.247868982945, "timestamp": "2025-12-24T11:32:58.717871+00:00", "meta": {"OBJECT_NAME": "TRANSPORTER-15V", "OBJECT_ID": "2025-276V", "EPOCH": "2025-12-24T03:35:44.155104", "MEAN_MOTION": 15.17502695, "ECCENTRICITY": 0.0004086, "INCLINATION": 97.4416, "RA_OF_ASC_NODE": 69.7107, "ARG_OF_PERICENTER": 257.7079, "MEAN_ANOMALY": 102.3697, "EPHEMERIS_TYPE": 0, "CLASSIFICATION_TYPE": "U", "NORAD_CAT_ID": 66685, "ELEMENT_SET_NO": 999, "REV_AT_EPOCH": 385, "BSTAR": 0.0008061, "MEAN_MOTION_DOT": 0.00016117, "MEAN_MOTION_DDOT": 0}, "tle": {"line1": "1 66685U 25276V   25358.14981661  .00016117  00000+0  80610-3 0  9995", "line2": "2 66685  97.4416  69.7107 0004086 257.7079 102.3697 15.17502695  3854"}}, "geometry": {"type": "Point", "coordinates": [68.80758192100494, 9.317099518728297]}}, {"type": "Feature", "properties": {"norad_id": 66686, "name": "TRANSPORTER-15W", "group": "last-30-days", "lat": 0.5753132371978692, "lon": 69.96282895982594, "alt_km": 502.6572262178943, "timestamp": "2025-12-24T11:32:58.717885+00:00", "meta": {"OBJECT_NAME": "TRANSPORTER-15W", "OBJECT_ID": "2025-276W", "EPOCH": "2025-12-23T03:56:36.504096", "MEAN_MOTION": 15.1831658, "ECCENTRICITY": 0.00058538, "INCLINATION": 97.445, "RA_OF_ASC_NODE": 68.7391, "ARG_OF_PERICENTER": 311.4119, "MEAN_ANOMALY": 48.6611, "EPHEMERIS_TYPE": 0, "CLASSIFICATION_TYPE": "U", "NORAD_CAT_ID": 66686, "ELEMENT_SET_NO": 999, "REV_AT_EPOCH": 370, "BSTAR": 0.05265621, "MEAN_MOTION_DOT": 0.01174743, "MEAN_MOTION_DDOT": 0}, "tle": {"line1": "1 66686U 25276W   25357.16431139  .01174743  00000+0  52656-1 0  9995", "line2": "2 66686  97.4450  68.7391 0005853 311.4119  48.6611 15.18316580  3702"}}, "geometry": {"type": "Point", "coordinates": [69.96282895982594, 0.5753132371978692]}}]}